NORAD_CAT_ID,OBJECT_NAME,OBJECT_TYPE,EPOCH,MEAN_MOTION,ECCENTRICITY,INCLINATION,RA_OF_ASC_NODE,ARG_OF_PERICENTER,MEAN_ANOMALY,BSTAR,MEAN_MOTION_DOT,MEAN_MOTION_DDOT,TLE_LINE0,TLE_LINE1,TLE_LINE2,SEMIMAJOR_AXIS,PERIOD,APOGEE,PERIGEE,DECAYED
55414.0,STARLINK-5620,PAYLOAD,2024-01-21 22:20:16,14.98331389,0.0002707,69.9984,245.3702,266.0567,94.0283,-2.4492e-06,-1.22e-06,0.0,0 STARLINK-5620,1 55414U 23014Z   24021.93074701 -.00000122  00000-0 -24492-5 0  9992,2 55414  69.9984 245.3702 0002707 266.0567  94.0283 14.98331389 55068,6950.189,96.107,573.935,570.172,0.0
55414.0,STARLINK-5620,PAYLOAD,2024-01-22 01:32:32,14.98331918,0.0002719,69.9984,245.0334,268.1495,91.9353,3.2617e-06,-5.4e-07,0.0,0 STARLINK-5620,1 55414U 23014Z   24022.06426646 -.00000054  00000-0  32617-5 0  9997,2 55414  69.9984 245.0334 0002719 268.1495  91.9353 14.98331918 55086,6950.187,96.107,573.942,570.162,0.0
55414.0,STARLINK-5620,PAYLOAD,2024-01-22 22:22:17,14.9832812,0.0002733,69.9984,242.845,266.5841,93.5006,6.2826e-06,-1.8e-07,0.0,0 STARLINK-5620,1 55414U 23014Z   24022.93214874 -.00000018  00000-0  62826-5 0  9996,2 55414  69.9984 242.8450 0002733 266.5841  93.5006 14.98328120 55212,6950.199,96.107,573.963,570.164,0.0
55414.0,STARLINK-5620,PAYLOAD,2024-01-22 23:58:25,14.98328072,0.0002734,69.9984,242.6766,266.7812,93.3035,5.413e-06,-2.8e-07,0.0,0 STARLINK-5620,1 55414U 23014Z   24022.99890885 -.00000028  00000-0  54130-5 0  9994,2 55414  69.9984 242.6766 0002734 266.7812  93.3035 14.98328072 55228,6950.199,96.107,573.964,570.164,0.0
55414.0,STARLINK-5620,PAYLOAD,2024-01-23 15:59:46,14.98332641,0.0002793,69.9981,240.993,267.9624,92.1215,1.3646e-05,7e-07,0.0,0 STARLINK-5620,1 55414U 23014Z   24023.66650539  .00000070  00000-0  13646-4 0  9991,2 55414  69.9981 240.9930 0002793 267.9624  92.1215 14.98332641 55323,6950.185,96.107,573.991,570.109,0.0
55414.0,STARLINK-5620,PAYLOAD,2024-01-23 22:24:18,14.98333774,0.0002767,69.9982,240.3199,267.5286,92.5557,2.8626e-05,2.49e-06,0.0,0 STARLINK-5620,1 55414U 23014Z   24023.93354360  .00000249  00000-0  28626-4 0  9996,2 55414  69.9982 240.3199 0002767 267.5286  92.5557 14.98333774 55361,6950.181,96.107,573.969,570.123,0.0
55414.0,STARLINK-5620,PAYLOAD,2024-01-24 14:25:39,14.98327362,0.0002604,69.9986,238.6376,259.168,100.9186,2.5322e-06,-6.3e-07,0.0,0 STARLINK-5620,1 55414U 23014Z   24024.60114766 -.00000063  00000-0  25322-5 0  9991,2 55414  69.9986 238.6376 0002604 259.1680 100.9186 14.98327362 55466,6950.201,96.107,573.876,570.256,0.0
55414.0,STARLINK-5620,PAYLOAD,2024-01-24 19:14:03,14.98326884,0.000262,69.9988,238.1323,260.2669,99.8194,-4.4394e-06,-1.46e-06,0.0,0 STARLINK-5620,1 55414U 23014Z   24024.80142840 -.00000146  00000-0 -44394-5 0  9990,2 55414  69.9988 238.1323 0002620 260.2669  99.8194 14.98326884 55499,6950.203,96.107,573.888,570.247,0.0
55414.0,STARLINK-5620,PAYLOAD,2024-01-24 22:26:19,14.98325764,0.0002674,69.9988,237.7959,263.5642,96.5213,-2.1047e-05,-3.44e-06,0.0,0 STARLINK-5620,1 55414U 23014Z   24024.93494995 -.00000344  00000-0 -21047-4 0  9994,2 55414  69.9988 237.7959 0002674 263.5642  96.5213 14.98325764 55510,6950.206,96.107,573.929,570.213,0.0
55414.0,STARLINK-5620,PAYLOAD,2024-01-25 14:27:39,14.9833292,0.0002749,69.9987,236.1119,269.3964,90.688,-1.1139e-05,-2.26e-06,0.0,0 STARLINK-5620,1 55414U 23014Z   24025.60254556 -.00000226  00000-0 -11139-4 0  9996,2 55414  69.9987 236.1119 0002749 269.3964  90.6880 14.98332920 55612,6950.184,96.107,573.959,570.138,0.0
55414.0,STARLINK-5620,PAYLOAD,2024-01-25 19:16:03,14.98334306,0.0002715,69.999,235.6063,268.8478,91.237,7.2716e-06,-6e-08,0.0,0 STARLINK-5620,1 55414U 23014Z   24025.80282368 -.00000006  00000-0  72716-5 0  9994,2 55414  69.9990 235.6063 0002715 268.8478  91.2370 14.98334306 55649,6950.18,96.107,573.932,570.158,0.0
55414.0,STARLINK-5620,PAYLOAD,2024-01-25 22:28:20,14.98332422,0.0002783,69.999,235.2698,271.3134,88.7706,-1.6264e-05,-2.87e-06,0.0,0 STARLINK-5620,1 55414U 23014Z   24025.93634544 -.00000287  00000-0 -16264-4 0  9992,2 55414  69.9990 235.2698 0002783 271.3134  88.7706 14.98332422 55665,6950.185,96.107,573.985,570.116,0.0
55414.0,STARLINK-5620,PAYLOAD,2024-01-26 14:29:40,14.98328577,0.0002829,69.9992,233.5868,271.6166,88.4669,4.0472e-05,3.9e-06,0.0,0 STARLINK-5620,1 55414U 23014Z   24026.60394559  .00000390  00000-0  40472-4 0  9997,2 55414  69.9992 233.5868 0002829 271.6166  88.4669 14.98328577 55768,6950.197,96.107,574.029,570.096,0.0
55414.0,STARLINK-5620,PAYLOAD,2024-01-26 19:18:05,14.98329081,0.0002818,69.9993,233.0817,271.6046,88.479,4.5303e-05,4.48e-06,0.0,0 STARLINK-5620,1 55414U 23014Z   24026.80422518  .00000448  00000-0  45303-4 0  9998,2 55414  69.9993 233.0817 0002818 271.6046  88.4790 14.98329081 55792,6950.196,96.107,574.019,570.102,0.0
55414.0,STARLINK-5620,PAYLOAD,2024-01-27 14:31:41,14.98331717,0.0002815,69.9995,231.0619,271.0231,89.0606,-2.4819e-06,-1.23e-06,0.0,0 STARLINK-5620,1 55414U 23014Z   24027.60534453 -.00000123  00000-0 -24819-5 0  9991,2 55414  69.9995 231.0619 0002815 271.0231  89.0606 14.98331717 55915,6950.188,96.107,574.009,570.096,0.0
55414.0,STARLINK-5620,PAYLOAD,2024-01-27 19:20:05,14.98331695,0.0002813,69.9995,230.5571,270.4581,89.6256,-2.0431e-06,-1.17e-06,0.0,0 STARLINK-5620,1 55414U 23014Z   24027.80562421 -.00000117  00000-0 -20431-5 0  9998,2 55414  69.9995 230.5571 0002813 270.4581  89.6256 14.98331695 55940,6950.188,96.107,574.008,570.098,0.0
55414.0,STARLINK-5620,PAYLOAD,2024-01-27 20:56:14,14.98331321,0.000282,69.9995,230.3887,270.6284,89.4552,-6.6807e-06,-1.73e-06,0.0,0 STARLINK-5620,1 55414U 23014Z   24027.87238443 -.00000173  00000-0 -66807-5 0  9998,2 55414  69.9995 230.3887 0002820 270.6284  89.4552 14.98331321 55952,6950.189,96.107,574.014,570.094,0.0
55414.0,STARLINK-5620,PAYLOAD,2024-01-28 14:33:42,14.98330937,0.000282,69.9994,228.5373,269.3049,90.7787,7.9144e-06,1e-08,0.0,0 STARLINK-5620,1 55414U 23014Z   24028.60674329  .00000001  00000-0  79144-5 0  9993,2 55414  69.9994 228.5373 0002820 269.3049  90.7787 14.98330937 56064,6950.19,96.107,574.015,570.095,0.0
55414.0,STARLINK-5620,PAYLOAD,2024-01-28 19:22:06,14.98330687,0.0002828,69.9994,228.0324,268.5782,91.5054,4.1354e-06,-4.4e-07,0.0,0 STARLINK-5620,1 55414U 23014Z   24028.80702332 -.00000044  00000-0  41354-5 0  9991,2 55414  69.9994 228.0324 0002828 268.5782  91.5054 14.98330687 56099,6950.191,96.107,574.021,570.09,0.0
55414.0,STARLINK-5620,PAYLOAD,2024-01-28 22:34:22,14.98330876,0.0002831,69.9994,227.6957,268.741,91.3425,5.6607e-06,-2.5e-07,0.0,0 STARLINK-5620,1 55414U 23014Z   24028.94054304 -.00000025  00000-0  56607-5 0  9991,2 55414  69.9994 227.6957 0002831 268.7410  91.3425 14.98330876 56113,6950.19,96.107,574.023,570.088,0.0
55414.0,STARLINK-5620,PAYLOAD,2024-01-29 00:10:30,14.98331088,0.0002822,69.9994,227.5273,267.9451,92.1385,8.3128e-06,6e-08,0.0,0 STARLINK-5620,1 55414U 23014Z   24029.00730272  .00000006  00000-0  83128-5 0  9990,2 55414  69.9994 227.5273 0002822 267.9451  92.1385 14.98331088 56120,6950.19,96.107,574.016,570.093,0.0
55414.0,STARLINK-5620,PAYLOAD,2024-01-30 14:37:46,14.98304619,0.0002429,69.9996,223.4886,257.1215,102.9672,-0.00029467,-3.605e-05,0.0,0 STARLINK-5620,1 55414U 23014Z   24030.60956076 -.00003605  00000-0 -29467-3 0  9994,2 55414  69.9996 223.4886 0002429 257.1215 102.9672 14.98304619 56364,6950.271,96.109,573.825,570.448,0.0
55414.0,STARLINK-5620,PAYLOAD,2024-01-30 19:26:10,14.98306055,0.0003109,69.9989,222.9853,272.6403,87.44,-0.00026012,-3.193e-05,0.0,0 STARLINK-5620,1 55414U 23014Z   24030.80984387 -.00003193  00000-0 -26012-3 0  9997,2 55414  69.9989 222.9853 0003109 272.6403  87.4400 14.98306055 56396,6950.267,96.109,574.293,569.971,0.0
55414.0,STARLINK-5620,PAYLOAD,2024-01-30 22:38:27,14.98300785,0.000279,69.9993,222.6469,266.4639,93.6201,-0.00031598,-3.858e-05,0.0,0 STARLINK-5620,1 55414U 23014Z   24030.94336928 -.00003858  00000-0 -31598-3 0  9997,2 55414  69.9993 222.6469 0002790 266.4639  93.6201 14.98300785 56413,6950.283,96.109,574.087,570.209,0.0
55414.0,STARLINK-5620,PAYLOAD,2024-01-31 11:27:31,14.98311305,0.0003223,69.9963,221.2963,262.4217,97.6576,-0.00015318,-1.919e-05,0.0,0 STARLINK-5620,1 55414U 23014Z   24031.47744886 -.00001919  00000-0 -15318-3 0  9990,2 55414  69.9963 221.2963 0003223 262.4217  97.6576 14.98311305 56491,6950.251,96.108,574.356,569.876,0.0
55414.0,STARLINK-5620,PAYLOAD,2024-01-31 22:40:26,14.98313687,0.0003196,69.998,220.122,268.0405,92.0388,0.00034307,4.001e-05,0.0,0 STARLINK-5620,1 55414U 23014Z   24031.94474827  .00004001  00000-0  34307-3 0  9999,2 55414  69.9980 220.1220 0003196 268.0405  92.0388 14.98313687 56567,6950.243,96.108,574.33,569.887,0.0
55414.0,STARLINK-5620,PAYLOAD,2024-02-01 11:29:31,14.98312341,0.0003069,69.9982,218.7753,265.8865,94.1943,0.00029216,3.393e-05,0.0,0 STARLINK-5620,1 55414U 23014Z   24032.47883712  .00003393  00000-0  29216-3 0  9991,2 55414  69.9982 218.7753 0003069 265.8865  94.1943 14.98312341 56642,6950.248,96.108,574.246,569.979,0.0
55414.0,STARLINK-5620,PAYLOAD,2024-02-02 14:43:48,14.98338665,0.000277,69.9995,215.9141,264.326,95.7583,6.01e-05,6.24e-06,0.0,0 STARLINK-5620,1 55414U 23014Z   24033.61375197  .00000624  00000-0  60100-4 0  9993,2 55414  69.9995 215.9141 0002770 264.3260  95.7583 14.98338665 56810,6950.166,96.106,573.956,570.106,0.0
55414.0,STARLINK-5620,PAYLOAD,2024-02-02 19:32:12,14.98339976,0.0002681,69.9993,215.4079,264.7903,95.295,7.6373e-05,8.19e-06,0.0,0 STARLINK-5620,1 55414U 23014Z   24033.81402957  .00000819  00000-0  76373-4 0  9995,2 55414  69.9993 215.4079 0002681 264.7903  95.2950 14.98339976 56844,6950.162,96.106,573.89,570.164,0.0
55414.0,STARLINK-5620,PAYLOAD,2024-02-02 21:08:20,14.98340312,0.0002672,69.9994,215.2397,264.1708,95.9147,7.9182e-05,8.52e-06,0.0,0 STARLINK-5620,1 55414U 23014Z   24033.88078877  .00000852  00000-0  79182-4 0  9990,2 55414  69.9994 215.2397 0002672 264.1708  95.9147 14.98340312 56855,6950.161,96.106,573.883,570.169,0.0
